{"type": "FeatureCollection", "features": [ {"type": "Feature", "properties": {"norad_id": 66611, "name": "STARLINK-35583", "group": "last-30-days", "lat": 37.619896954608414, "lon": -52.924217702232255, "alt_km": 328.65052382703107, "timestamp": "2025-12-02T21:34:00.043741+00:00", "meta": {"OBJECT_NAME": "STARLINK-35583", "OBJECT_ID": "2025-270Z", "EPOCH": "2025-12-02T12:00:05.998752", "MEAN_MOTION": 15.80496847, "ECCENTRICITY": 0.0001597, "INCLINATION": 42.9992, "RA_OF_ASC_NODE": 253.7133, "ARG_OF_PERICENTER": 265.1924, "MEAN_ANOMALY": 49.1472, "EPHEMERIS_TYPE": 0, "CLASSIFICATION_TYPE": "U", "NORAD_CAT_ID": 66611, "ELEMENT_SET_NO": 999, "REV_AT_EPOCH": 286, "BSTAR": -0.010597, "MEAN_MOTION_DOT": -0.01824962, "MEAN_MOTION_DDOT": 0}, "tle": {"line1": "1 66611U 25270Z   25336.50006943 -.01824962  00000+0 -10597-1 0  9998", "line2": "2 66611  42.9992 253.7133 0001597 265.1924  49.1472 15.80496847  2867"}}, "geometry": {"type": "Point", "coordinates": [-52.924217702232255, 37.619896954608414]}}, {"type": "Feature", "properties": {"norad_id": 66612, "name": "STARLINK-36039", "group": "last-30-days", "lat": 38.401482417948046, "lon": -50.44513840936453, "alt_km": 328.81142911466486, "timestamp": "2025-12-02T21:34:00.043751+00:00", "meta": {"OBJECT_NAME": "STARLINK-36039", "OBJECT_ID": "2025-270AA", "EPOCH": "2025-12-02T12:00:05.998752", "MEAN_MOTION": 15.80469052, "ECCENTRICITY": 0.0001766, "INCLINATION": 42.999, "RA_OF_ASC_NODE": 253.7078, "ARG_OF_PERICENTER": 261.2433, "MEAN_ANOMALY": 55.2518, "EPHEMERIS_TYPE": 0, "CLASSIFICATION_TYPE": "U", "NORAD_CAT_ID": 66612, "ELEMENT_SET_NO": 999, "REV_AT_EPOCH": 275, "BSTAR": -0.010692, "MEAN_MOTION_DOT": -0.0183745, "MEAN_MOTION_DDOT": 0}, "tle": {"line1": "1 66612U 25270AA  25336.50006943 -.01837450  00000+0 -10692-1 0  9991", "line2": "2 66612  42.9990 253.7078 0001766 261.2433  55.2518 15.80469052  2759"}}, "geometry": {"type": "Point", "coordinates": [-50.44513840936453, 38.401482417948046]}}, {"type": "Feature", "properties": {"norad_id": 66613, "name": "STARLINK-36037", "group": "last-30-days", "lat": 39.103410684294275, "lon": -48.00961730390458, "alt_km": 328.7494328077655, "timestamp": "2025-12-02T21:34:00.043761+00:00", "meta": {"OBJECT_NAME": "STARLINK-36037", "OBJECT_ID": "2025-270AB", "EPOCH": "2025-12-02T12:00:05.998752", "MEAN_MOTION": 15.80459365, "ECCENTRICITY": 0.0001743, "INCLINATION": 42.9991, "RA_OF_ASC_NODE": 253.7027, "ARG_OF_PERICENTER": 263.5075, "MEAN_ANOMALY": 55.0376, "EPHEMERIS_TYPE": 0, "CLASSIFICATION_TYPE": "U", "NORAD_CAT_ID": 66613, "ELEMENT_SET_NO": 999, "REV_AT_EPOCH": 275, "BSTAR": -0.010794, "MEAN_MOTION_DOT": -0.01851978, "MEAN_MOTION_DDOT": 0}, "tle": {"line1": "1 66613U 25270AB  25336.50006943 -.01851978  00000+0 -10794-1 0  9996", "line2": "2 66613  42.9991 253.7027 0001743 263.5075  55.0376 15.80459365  2753"}}, "geometry": {"type": "Point", "coordinates": [-48.00961730390458, 39.103410684294275]}}, {"type": "Feature", "properties": {"norad_id": 66614, "name": "STARLINK-36040", "group": "last-30-days", "lat": 40.30694068348902, "lon": -43.187490629681655, "alt_km": 328.6474847432619, "timestamp": "2025-12-02T21:34:00.043771+00:00", "meta": {"OBJECT_NAME": "STARLINK-36040", "OBJECT_ID": "2025-270AC", "EPOCH": "2025-12-02T12:00:05.998752", "MEAN_MOTION": 15.80469364, "ECCENTRICITY": 0.000177, "INCLINATION": 42.999, "RA_OF_ASC_NODE": 253.6928, "ARG_OF_PERICENTER": 257.7368, "MEAN_ANOMALY": 64.7083, "EPHEMERIS_TYPE": 0, "CLASSIFICATION_TYPE": "U", "NORAD_CAT_ID": 66614, "ELEMENT_SET_NO": 999, "REV_AT_EPOCH": 259, "BSTAR": -0.010868, "MEAN_MOTION_DOT": -0.01863871, "MEAN_MOTION_DDOT": 0}, "tle": {"line1": "1 66614U 25270AC  25336.50006943 -.01863871  00000+0 -10868-1 0  9994", "line2": "2 66614  42.9990 253.6928 0001770 257.7368  64.7083 15.80469364  2596"}}, "geometry": {"type": "Point", "coordinates": [-43.187490629681655, 40.30694068348902]}}, {"type": "Feature", "properties": {"norad_id": 66615, "name": "STARLINK-35988", "group": "last-30-days", "lat": 39.75268033053359, "lon": -45.52962623479525, "alt_km": 328.7630350322006, "timestamp": "2025-12-02T21:34:00.043781+00:00", "meta": {"OBJECT_NAME": "STARLINK-35988", "OBJECT_ID": "2025-270AD", "EPOCH": "2025-12-02T12:00:05.998752", "MEAN_MOTION": 15.80456272, "ECCENTRICITY": 0.000173, "INCLINATION": 42.9991, "RA_OF_ASC_NODE": 253.6976, "ARG_OF_PERICENTER": 257.2781, "MEAN_ANOMALY": 63.3134, "EPHEMERIS_TYPE": 0, "CLASSIFICATION_TYPE": "U", "NORAD_CAT_ID": 66615, "ELEMENT_SET_NO": 999, "REV_AT_EPOCH": 259, "BSTAR": -0.010932, "MEAN_MOTION_DOT": -0.01872267, "MEAN_MOTION_DDOT": 0}, "tle": {"line1": "1 66615U 25270AD  25336.50006943 -.01872267  00000+0 -10932-1 0  9996", "line2": "2 66615  42.9991 253.6976 0001730 257.2781  63.3134 15.80456272  2597"}}, "geometry": {"type": "Point", "coordinates": [-45.52962623479525, 39.75268033053359]}}, {"type": "Feature", "properties": {"norad_id": 66616, "name": "STARLINK-35391", "group": "last-30-days", "lat": 40.84482085993852, "lon": -40.64993450824349, "alt_km": 328.56166305025, "timestamp": "2025-12-02T21:34:00.043793+00:00", "meta": {"OBJECT_NAME": "STARLINK-35391", "OBJECT_ID": "2025-270AE", "EPOCH": "2025-12-02T12:00:05.998752", "MEAN_MOTION": 15.80469027, "ECCENTRICITY": 0.0001699, "INCLINATION": 42.9991, "RA_OF_ASC_NODE": 253.6879, "ARG_OF_PERICENTER": 259.6996, "MEAN_ANOMALY": 64.7595, "EPHEMERIS_TYPE": 0, "CLASSIFICATION_TYPE": "U", "NORAD_CAT_ID": 66616, "ELEMENT_SET_NO": 999, "REV_AT_EPOCH": 286, "BSTAR": -0.010978, "MEAN_MOTION_DOT": -0.0188019, "MEAN_MOTION_DDOT": 0}, "tle": {"line1": "1 66616U 25270AE  25336.50006943 -.01880190  00000+0 -10978-1 0  9991", "line2": "2 66616  42.9991 253.6879 0001699 259.6996  64.7595 15.80469027  2866"}}, "geometry": {"type": "Point", "coordinates": [-40.64993450824349, 40.84482085993852]}}, {"type": "Feature", "properties": {"norad_id": 66645, "name": "SHENZHOU-22", "group": "last-30-days", "lat": -40.45543199178637, "lon": 1.4839816328910944, "alt_km": 389.2663356818375, "timestamp": "2025-12-02T21:34:00.043805+00:00", "meta": {"OBJECT_NAME": "SHENZHOU-22", "OBJECT_ID": "2025-272A", "EPOCH": "2025-12-02T06:31:22.828800", "MEAN_MOTION": 15.58517706, "ECCENTRICITY": 0.00102589, "INCLINATION": 41.4672, "RA_OF_ASC_NODE": 80.2264, "ARG_OF_PERICENTER": 312.0297, "MEAN_ANOMALY": 47.9667, "EPHEMERIS_TYPE": 0, "CLASSIFICATION_TYPE": "U", "NORAD_CAT_ID": 66645, "ELEMENT_SET_NO": 999, "REV_AT_EPOCH": 26240, "BSTAR": 0.00032073258, "MEAN_MOTION_DOT": 0.00025017, "MEAN_MOTION_DDOT": 0}, "tle": {"line1": "1 66645U 25272A   25336.27179200  .00025017  00000+0  32073-3 0  9994", "line2": "2 66645  41.4672  80.2264 0010258 312.0297  47.9667 15.58517706262403"}}, "geometry": {"type": "Point", "coordinates": [1.4839816328910944, -40.45543199178637]}}, {"type": "Feature", "properties": {"norad_id": 66646, "name": "CZ-2F R/B", "group": "last-30-days", "lat": 39.286270388146775, "lon": -174.8942544983203, "alt_km": 230.37165274541712, "timestamp": "2025-12-02T21:34:00.043817+00:00", "meta": {"OBJECT_NAME": "CZ-2F R/B", "OBJECT_ID": "2025-272B", "EPOCH": "2025-11-26T11:17:54.506400", "MEAN_MOTION": 16.01945612, "ECCENTRICITY": 0.01210796, "INCLINATION": 41.4431, "RA_OF_ASC_NODE": 114.9009, "ARG_OF_PERICENTER": 133.7676, "MEAN_ANOMALY": 227.3272, "EPHEMERIS_TYPE": 0, "CLASSIFICATION_TYPE": "U", "NORAD_CAT_ID": 66646, "ELEMENT_SET_NO": 999, "REV_AT_EPOCH": 21, "BSTAR": 0.00029319366, "MEAN_MOTION_DOT": 0.00449059, "MEAN_MOTION_DDOT": 7.567612e-06}, "tle": {"line1": "1 66646U 25272B   25330.47076975  .00449059  75676-5  29319-3 0  9998", "line2": "2 66646  41.4431 114.9009 0121079 133.7676 227.3272 16.01945612   217"}}, "geometry": {"type": "Point", "coordinates": [-174.8942544983203, 39.286270388146775]}}, {"type": "Feature", "properties": {"norad_id": 66647, "name": "COSMOS 2597 (RODNIK-S 22)", "group": "last-30-days", "lat": 49.87043054610305, "lon": -58.446635071320635, "alt_km": 1494.6080620132334, "timestamp": "2025-12-02T21:34:00.043828+00:00", "meta": {"OBJECT_NAME": "COSMOS 2597 (RODNIK-S 22)", "OBJECT_ID": "2025-273A", "EPOCH": "2025-12-02T11:37:44.827104", "MEAN_MOTION": 12.41951048, "ECCENTRICITY": 0.0008164, "INCLINATION": 82.4981, "RA_OF_ASC_NODE": 292.8181, "ARG_OF_PERICENTER": 313.1769, "MEAN_ANOMALY": 46.8627, "EPHEMERIS_TYPE": 0, "CLASSIFICATION_TYPE": "U", "NORAD_CAT_ID": 66647, "ELEMENT_SET_NO": 999, "REV_AT_EPOCH": 86, "BSTAR": -4.4667e-05, "MEAN_MOTION_DOT": 4e-08, "MEAN_MOTION_DDOT": 0}, "tle": {"line1": "1 66647U 25273A   25336.48454661  .00000004  00000+0 -44667-4 0  9990", "line2": "2 66647  82.4981 292.8181 0008164 313.1769  46.8627 12.41951048   865"}}, "geometry": {"type": "Point", "coordinates": [-58.446635071320635, 49.87043054610305]}}, {"type": "Feature", "properties": {"norad_id": 66648, "name": "COSMOS 2598 (RODNIK-S 23)", "group": "last-30-days", "lat": 57.55170502644894, "lon": -55.479806629933506, "alt_km": 1494.4581052112671, "timestamp": "2025-12-02T21:34:00.043838+00:00", "meta": {"OBJECT_NAME": "COSMOS 2598 (RODNIK-S 23)", "OBJECT_ID": "2025-273B", "EPOCH": "2025-12-02T11:35:21.088608", "MEAN_MOTION": 12.42252995, "ECCENTRICITY": 0.0008246, "INCLINATION": 82.5022, "RA_OF_ASC_NODE": 292.825, "ARG_OF_PERICENTER": 301.8143, "MEAN_ANOMALY": 58.2133, "EPHEMERIS_TYPE": 0, "CLASSIFICATION_TYPE": "U", "NORAD_CAT_ID": 66648, "ELEMENT_SET_NO": 999, "REV_AT_EPOCH": 86, "BSTAR": -0.00018952, "MEAN_MOTION_DOT": -1.6e-07, "MEAN_MOTION_DDOT": 0}, "tle": {"line1": "1 66648U 25273B   25336.48288297 -.00000016  00000+0 -18952-3 0  9992", "line2": "2 66648  82.5022 292.8250 0008246 301.8143  58.2133 12.42252995   866"}}, "geometry": {"type": "Point", "coordinates": [-55.479806629933506, 57.55170502644894]}}]}